CCSDS_OMM_VERS = 2.0
CREATION_DATE  = 
ORIGINATOR     = 

OBJECT_NAME    = STARLINK-36654
OBJECT_ID      = 2026-033T
CENTER_NAME    = EARTH
REF_FRAME      = TEME
TIME_SYSTEM    = UTC
MEAN_ELEMENT_THEORY = SGP/SGP4

EPOCH          = 2026-03-11T12:00:02.998944
MEAN_MOTION    = 15.78607226
ECCENTRICITY   = .0001704
INCLINATION    = 42.9992
RA_OF_ASC_NODE = 260.2708
ARG_OF_PERICENTER = 261.7930
MEAN_ANOMALY   = 18.2933

EPHEMERIS_TYPE = 0
CLASSIFICATION_TYPE = U
NORAD_CAT_ID   = 67838
ELEMENT_SET_NO = 999
REV_AT_EPOCH   = 495
BSTAR          = -.12059E-1
MEAN_MOTION_DOT = -.1893105E-1
MEAN_MOTION_DDOT = 0

CCSDS_OMM_VERS = 2.0
CREATION_DATE  = 
ORIGINATOR     = 

OBJECT_NAME    = STARLINK-36652
OBJECT_ID      = 2026-033U
CENTER_NAME    = EARTH
REF_FRAME      = TEME
TIME_SYSTEM    = UTC
MEAN_ELEMENT_THEORY = SGP/SGP4

EPOCH          = 2026-03-11T12:00:02.998944
MEAN_MOTION    = 15.76895149
ECCENTRICITY   = .0001797
INCLINATION    = 42.9992
RA_OF_ASC_NODE = 260.2762
ARG_OF_PERICENTER = 260.4499
MEAN_ANOMALY   = 17.6547

EPHEMERIS_TYPE = 0
CLASSIFICATION_TYPE = U
NORAD_CAT_ID   = 67839
ELEMENT_SET_NO = 999
REV_AT_EPOCH   = 495
BSTAR          = -.12933E-1
MEAN_MOTION_DOT = -.1880419E-1
MEAN_MOTION_DDOT = 0

CCSDS_OMM_VERS = 2.0
CREATION_DATE  = 
ORIGINATOR     = 

OBJECT_NAME    = STARLINK-36651
OBJECT_ID      = 2026-033V
CENTER_NAME    = EARTH
REF_FRAME      = TEME
TIME_SYSTEM    = UTC
MEAN_ELEMENT_THEORY = SGP/SGP4

EPOCH          = 2026-03-11T12:00:02.998944
MEAN_MOTION    = 15.78422727
ECCENTRICITY   = .0001725
INCLINATION    = 42.9992
RA_OF_ASC_NODE = 260.2507
ARG_OF_PERICENTER = 261.9546
MEAN_ANOMALY   = 26.1424

EPHEMERIS_TYPE = 0
CLASSIFICATION_TYPE = U
NORAD_CAT_ID   = 67840
ELEMENT_SET_NO = 999
REV_AT_EPOCH   = 495
BSTAR          = -.121E-1
MEAN_MOTION_DOT = -.1884827E-1
MEAN_MOTION_DDOT = 0

CCSDS_OMM_VERS = 2.0
CREATION_DATE  = 
ORIGINATOR     = 

OBJECT_NAME    = STARLINK-36656
OBJECT_ID      = 2026-033W
CENTER_NAME    = EARTH
REF_FRAME      = TEME
TIME_SYSTEM    = UTC
MEAN_ELEMENT_THEORY = SGP/SGP4

EPOCH          = 2026-03-11T00:08:27.991392
MEAN_MOTION    = 15.82024668
ECCENTRICITY   = .00022628
INCLINATION    = 42.9980
RA_OF_ASC_NODE = 263.2558
ARG_OF_PERICENTER = 260.6473
MEAN_ANOMALY   = 99.4143

EPHEMERIS_TYPE = 0
CLASSIFICATION_TYPE = U
NORAD_CAT_ID   = 67841
ELEMENT_SET_NO = 999
REV_AT_EPOCH   = 483
BSTAR          = .78297225E-3
MEAN_MOTION_DOT = .167638E-2
MEAN_MOTION_DDOT = 0

CCSDS_OMM_VERS = 2.0
CREATION_DATE  = 
ORIGINATOR     = 

OBJECT_NAME    = STARLINK-36653
OBJECT_ID      = 2026-033X
CENTER_NAME    = EARTH
REF_FRAME      = TEME
TIME_SYSTEM    = UTC
MEAN_ELEMENT_THEORY = SGP/SGP4

EPOCH          = 2026-03-11T12:00:02.998944
MEAN_MOTION    = 15.78520625
ECCENTRICITY   = .0001774
INCLINATION    = 42.9992
RA_OF_ASC_NODE = 260.2285
ARG_OF_PERICENTER = 261.6642
MEAN_ANOMALY   = 35.2621

EPHEMERIS_TYPE = 0
CLASSIFICATION_TYPE = U
NORAD_CAT_ID   = 67842
ELEMENT_SET_NO = 999
REV_AT_EPOCH   = 495
BSTAR          = -.12112E-1
MEAN_MOTION_DOT = -.1893867E-1
MEAN_MOTION_DDOT = 0

CCSDS_OMM_VERS = 2.0
CREATION_DATE  = 
ORIGINATOR     = 

OBJECT_NAME    = STARLINK-36589
OBJECT_ID      = 2026-033Y
CENTER_NAME    = EARTH
REF_FRAME      = TEME
TIME_SYSTEM    = UTC
MEAN_ELEMENT_THEORY = SGP/SGP4

EPOCH          = 2026-03-11T12:00:02.998944
MEAN_MOTION    = 15.79565981
ECCENTRICITY   = .0001732
INCLINATION    = 42.9990
RA_OF_ASC_NODE = 260.2113
ARG_OF_PERICENTER = 255.1611
MEAN_ANOMALY   = 48.7091

EPHEMERIS_TYPE = 0
CLASSIFICATION_TYPE = U
NORAD_CAT_ID   = 67843
ELEMENT_SET_NO = 999
REV_AT_EPOCH   = 495
BSTAR          = -.11528E-1
MEAN_MOTION_DOT = -.1891517E-1
MEAN_MOTION_DDOT = 0

CCSDS_OMM_VERS = 2.0
CREATION_DATE  = 
ORIGINATOR     = 

OBJECT_NAME    = STARLINK-36598
OBJECT_ID      = 2026-033Z
CENTER_NAME    = EARTH
REF_FRAME      = TEME
TIME_SYSTEM    = UTC
MEAN_ELEMENT_THEORY = SGP/SGP4

EPOCH          = 2026-03-09T23:50:38.265216
MEAN_MOTION    = 15.82154324
ECCENTRICITY   = .00020482
INCLINATION    = 42.9981
RA_OF_ASC_NODE = 269.4275
ARG_OF_PERICENTER = 271.9135
MEAN_ANOMALY   = 88.1502

EPHEMERIS_TYPE = 0
CLASSIFICATION_TYPE = U
NORAD_CAT_ID   = 67844
ELEMENT_SET_NO = 999
REV_AT_EPOCH   = 467
BSTAR          = .17829959E-2
MEAN_MOTION_DOT = .395096E-2
MEAN_MOTION_DDOT = 0

CCSDS_OMM_VERS = 2.0
CREATION_DATE  = 
ORIGINATOR     = 

OBJECT_NAME    = STARLINK-36606
OBJECT_ID      = 2026-033AA
CENTER_NAME    = EARTH
REF_FRAME      = TEME
TIME_SYSTEM    = UTC
MEAN_ELEMENT_THEORY = SGP/SGP4

EPOCH          = 2026-03-10T22:33:13.601664
MEAN_MOTION    = 15.82072065
ECCENTRICITY   = .0001667
INCLINATION    = 42.9975
RA_OF_ASC_NODE = 263.6169
ARG_OF_PERICENTER = 246.0158
MEAN_ANOMALY   = 114.0539

EPHEMERIS_TYPE = 0
CLASSIFICATION_TYPE = U
NORAD_CAT_ID   = 67845
ELEMENT_SET_NO = 999
REV_AT_EPOCH   = 482
BSTAR          = .90238375E-3
MEAN_MOTION_DOT = .19431E-2
MEAN_MOTION_DDOT = 0

CCSDS_OMM_VERS = 2.0
CREATION_DATE  = 
ORIGINATOR     = 

OBJECT_NAME    = STARLINK-36658
OBJECT_ID      = 2026-033AB
CENTER_NAME    = EARTH
REF_FRAME      = TEME
TIME_SYSTEM    = UTC
MEAN_ELEMENT_THEORY = SGP/SGP4

EPOCH          = 2026-03-11T12:00:02.998944
MEAN_MOTION    = 15.76813353
ECCENTRICITY   = .0001632
INCLINATION    = 42.9992
RA_OF_ASC_NODE = 260.2015
ARG_OF_PERICENTER = 264.3371
MEAN_ANOMALY   = 43.2708

EPHEMERIS_TYPE = 0
CLASSIFICATION_TYPE = U
NORAD_CAT_ID   = 67846
ELEMENT_SET_NO = 999
REV_AT_EPOCH   = 495
BSTAR          = -.13093E-1
MEAN_MOTION_DOT = -.1894334E-1
MEAN_MOTION_DDOT = 0

CCSDS_OMM_VERS = 2.0
CREATION_DATE  = 
ORIGINATOR     = 

OBJECT_NAME    = STARLINK-36618
OBJECT_ID      = 2026-033AC
CENTER_NAME    = EARTH
REF_FRAME      = TEME
TIME_SYSTEM    = UTC
MEAN_ELEMENT_THEORY = SGP/SGP4

EPOCH          = 2026-03-11T12:46:00.272640
MEAN_MOTION    = 15.92013168
ECCENTRICITY   = .0004793
INCLINATION    = 42.9806
RA_OF_ASC_NODE = 257.5920
ARG_OF_PERICENTER = 251.6612
MEAN_ANOMALY   = 108.3741

EPHEMERIS_TYPE = 0
CLASSIFICATION_TYPE = U
NORAD_CAT_ID   = 67847
ELEMENT_SET_NO = 999
REV_AT_EPOCH   = 494
BSTAR          = .28346E-2
MEAN_MOTION_DOT = .97062E-2
MEAN_MOTION_DDOT = .40865E-3

CCSDS_OMM_VERS = 2.0
CREATION_DATE  = 
ORIGINATOR     = 

OBJECT_NAME    = STARLINK-36660
OBJECT_ID      = 2026-033AD
CENTER_NAME    = EARTH
REF_FRAME      = TEME
TIME_SYSTEM    = UTC
MEAN_ELEMENT_THEORY = SGP/SGP4

EPOCH          = 2026-03-11T12:00:02.998944
MEAN_MOTION    = 15.75360984
ECCENTRICITY   = .000183
INCLINATION    = 42.9992
RA_OF_ASC_NODE = 260.2087
ARG_OF_PERICENTER = 259.3485
MEAN_ANOMALY   = 45.1462

EPHEMERIS_TYPE = 0
CLASSIFICATION_TYPE = U
NORAD_CAT_ID   = 67848
ELEMENT_SET_NO = 999
REV_AT_EPOCH   = 495
BSTAR          = -.13903E-1
MEAN_MOTION_DOT = -.1886522E-1
MEAN_MOTION_DDOT = 0

CCSDS_OMM_VERS = 2.0
CREATION_DATE  = 
ORIGINATOR     = 

OBJECT_NAME    = STARLINK-36602
OBJECT_ID      = 2026-033AE
CENTER_NAME    = EARTH
REF_FRAME      = TEME
TIME_SYSTEM    = UTC
MEAN_ELEMENT_THEORY = SGP/SGP4

EPOCH          = 2026-03-11T12:00:02.998944
MEAN_MOTION    = 15.75943958
ECCENTRICITY   = .000183
INCLINATION    = 42.9992
RA_OF_ASC_NODE = 260.1900
ARG_OF_PERICENTER = 263.2179
MEAN_ANOMALY   = 48.7062

EPHEMERIS_TYPE = 0
CLASSIFICATION_TYPE = U
NORAD_CAT_ID   = 67849
ELEMENT_SET_NO = 999
REV_AT_EPOCH   = 495
BSTAR          = -.13607E-1
MEAN_MOTION_DOT = -.189382E-1
MEAN_MOTION_DDOT = 0

