STARLINK-36654          
1 67838U 26033T   26070.50003471 -.01893105  00000+0 -12059-1 0  9997
2 67838  42.9992 260.2708 0001704 261.7930  18.2933 15.78607226  4952
STARLINK-36652          
1 67839U 26033U   26070.50003471 -.01880419  00000+0 -12933-1 0  9993
2 67839  42.9992 260.2762 0001797 260.4499  17.6547 15.76895149  4956
STARLINK-36651          
1 67840U 26033V   26070.50003471 -.01884827  00000+0 -12100-1 0  9998
2 67840  42.9992 260.2507 0001725 261.9546  26.1424 15.78422727  4954
STARLINK-36656          
1 67841U 26033W   26070.00587953  .00167638  00000+0  78297-3 0  9998
2 67841  42.9980 263.2558 0002262 260.6473  99.4143 15.82024668  4838
STARLINK-36653          
1 67842U 26033X   26070.50003471 -.01893867  00000+0 -12112-1 0  9997
2 67842  42.9992 260.2285 0001774 261.6642  35.2621 15.78520625  4953
STARLINK-36589          
1 67843U 26033Y   26070.50003471 -.01891517  00000+0 -11528-1 0  9998
2 67843  42.9990 260.2113 0001732 255.1611  48.7091 15.79565981  4955
STARLINK-36598          
1 67844U 26033Z   26068.99349844  .00395096  00000+0  17830-2 0  9997
2 67844  42.9981 269.4275 0002048 271.9135  88.1502 15.82154324  4677
STARLINK-36606          
1 67845U 26033AA  26069.93974076  .00194310  00000+0  90238-3 0  9994
2 67845  42.9975 263.6169 0001667 246.0158 114.0539 15.82072065  4820
STARLINK-36658          
1 67846U 26033AB  26070.50003471 -.01894334  00000+0 -13093-1 0  9990
2 67846  42.9992 260.2015 0001632 264.3371  43.2708 15.76813353  4956
STARLINK-36618          
1 67847U 26033AC  26070.53194760  .00970620  40865-3  28346-2 0  9991
2 67847  42.9806 257.5920 0004793 251.6612 108.3741 15.92013168  4946
STARLINK-36660          
1 67848U 26033AD  26070.50003471 -.01886522  00000+0 -13903-1 0  9992
2 67848  42.9992 260.2087 0001830 259.3485  45.1462 15.75360984  4951
STARLINK-36602          
1 67849U 26033AE  26070.50003471 -.01893820  00000+0 -13607-1 0  9993
2 67849  42.9992 260.1900 0001830 263.2179  48.7062 15.75943958  4952
